ONEWEB-0393             
1 50473U 21132E   23313.59636629 -.00003408  00000+0 -88126-2 0  9999
2 50473  87.9251 194.7854 0001422  94.4794 265.6500 13.17661610 92925
ONEWEB-0394             
1 50474U 21132F   23313.59291098  .00000090  00000+0  19516-3 0  9997
2 50474  87.9233 164.5538 0001711  82.3126 277.8201 13.18685426 96318
ONEWEB-0395             
1 50475U 21132G   23313.20444743 -.00000379  00000+0 -11045-2 0  9993
2 50475  87.9005 210.0404 0001778  85.3947 274.7384 13.11415263 91071
ONEWEB-0396             
1 50476U 21132H   23313.58658682  .00000206  00000+0  48917-3 0  9990
2 50476  87.9235 164.5471 0001781  80.8742 279.2591 13.18689990 96354
ONEWEB-0397             
1 50477U 21132J   23313.60134683 -.00001261  00000+0 -32323-2 0  9991
2 50477  87.9232 164.5447 0002126  81.4337 278.7036 13.18692834 96333
ONEWEB-0398             
1 50478U 21132K   23313.78235396  .00000614  00000+0  16953-2 0  9994
2 50478  87.8991 209.9184 0001877 100.6758 259.4581 13.11425799 92323
ONEWEB-0399             
1 50479U 21132L   23313.23368003  .00000632  00000+0  17471-2 0  9993
2 50479  87.8998 210.0385 0001842  58.5986 301.5322 13.11420259 90969
ONEWEB-0400             
1 50480U 21132M   23313.58026328 -.00004680  00000+0 -11906-1 0  9999
2 50480  87.9220 164.5625 0003070 113.1737 246.9719 13.18712886 96322
